OBJECT_NAME,OBJECT_ID,EPOCH,MEAN_MOTION,ECCENTRICITY,INCLINATION,RA_OF_ASC_NODE,ARG_OF_PERICENTER,MEAN_ANOMALY,EPHEMERIS_TYPE,CLASSIFICATION_TYPE,NORAD_CAT_ID,ELEMENT_SET_NO,REV_AT_EPOCH,BSTAR,MEAN_MOTION_DOT,MEAN_MOTION_DDOT
STARLINK-35683,2025-257AB,2026-07-08T17:36:18.280224,15.34406099,.00006474,53.1591,12.8140,69.6917,290.4155,0,U,66405,999,3822,.6274922E-3,.20888E-3,0
STARLINK-34840,2025-257AC,2026-07-08T18:27:40.962240,15.34401816,.00007337,53.1604,12.3177,90.0735,270.0352,0,U,66406,999,3824,.61686002E-3,.20524E-3,0
STARLINK-35686,2025-257AD,2026-07-08T21:32:14.414784,15.34444062,.00011389,53.1614,11.7010,82.7794,277.3338,0,U,66407,999,3832,.14910498E-2,.50411E-3,0
STARLINK-35679,2025-257AE,2026-07-08T18:30:42.749568,15.34410097,.0000836,53.1607,12.3328,96.5681,263.5416,0,U,66408,999,3830,.81540558E-3,.27283E-3,0
STARLINK-35617,2025-259A,2026-07-08T08:35:56.648256,15.27600589,.00013798,42.9993,313.0870,147.5537,212.5400,0,U,66422,999,3794,.57956658E-3,.1573E-3,0
STARLINK-35618,2025-259B,2026-07-08T16:19:19.893504,15.27597538,.00012455,43.0026,311.2033,273.4223,86.6486,0,U,66423,999,3799,.68784071E-3,.18724E-3,0
STARLINK-35588,2025-259C,2026-07-08T16:15:36.070848,15.27627263,.00010926,43.0000,311.1802,220.5045,139.5725,0,U,66424,999,3799,.11505152E-2,.31579E-3,0
STARLINK-35555,2025-259D,2026-07-08T16:10:04.258560,15.27583517,.00015075,43.0026,311.1512,248.3507,111.7184,0,U,66425,999,3799,.5814273E-3,.15773E-3,0
STARLINK-35589,2025-259E,2026-07-08T16:06:21.694752,15.27596034,.0001339,42.9990,311.1235,195.2089,164.8723,0,U,66426,999,3799,.52989291E-3,.14355E-3,0
STARLINK-35611,2025-259F,2026-07-08T16:00:48.403296,15.27600714,.00017442,42.9979,311.0926,174.5890,185.4981,0,U,66427,999,3799,.59944698E-3,.1628E-3,0
STARLINK-35610,2025-259G,2026-07-08T09:38:38.577696,15.27589770,.00011805,43.0020,312.5447,244.2386,115.8344,0,U,66428,999,3795,.38677909E-3,.10399E-3,0
STARLINK-35533,2025-259H,2026-07-08T15:49:42.343104,15.27618647,.00018844,42.9984,311.0330,177.6570,182.4291,0,U,66429,999,3799,.70126121E-3,.19108E-3,0
STARLINK-35470,2025-259J,2026-07-08T15:44:08.810592,15.27623609,.00016419,42.9983,311.0033,216.9597,143.1142,0,U,66430,999,3799,.71961372E-3,.19619E-3,0
STARLINK-35439,2025-259K,2026-07-08T18:48:47.234592,15.27581082,.00014346,43.0013,310.2505,283.9912,76.0781,0,U,66431,999,3801,.58585188E-3,.15895E-3,0
STARLINK-35446,2025-259L,2026-07-08T18:46:55.314624,15.27602546,.00020683,43.0061,310.2454,283.9967,76.0655,0,U,66432,999,3801,.60413651E-3,.16411E-3,0
STARLINK-35457,2025-259M,2026-07-08T15:34:54.772320,15.27594778,.00014377,43.0004,310.9576,284.1068,75.9623,0,U,66433,999,3799,.87586509E-3,.23929E-3,0
STARLINK-35389,2025-259N,2026-07-08T15:33:03.620448,15.27585552,.00016783,43.0002,310.9465,278.4443,81.6218,0,U,66434,999,3799,.9006162E-3,.24608E-3,0
STARLINK-35502,2025-259P,2026-07-08T15:23:48.351840,15.27575502,.00029038,42.9968,310.8931,288.5263,71.5273,0,U,66435,999,3799,.10441032E-2,.28579E-3,0
STARLINK-35501,2025-259Q,2026-07-08T15:31:12.509184,15.27586324,.0000787,43.0007,310.9346,221.5465,138.5327,0,U,66436,999,3799,.13722728E-2,.377E-3,0
STARLINK-35474,2025-259R,2026-07-08T10:04:30.980928,15.27576152,.00018934,42.9982,312.6779,263.7061,96.3575,0,U,66437,999,3795,.61648138E-3,.16739E-3,0
STARLINK-34681,2025-259S,2026-07-08T08:21:08.303328,15.27579395,.00028208,43.0047,313.0045,296.4961,63.5601,0,U,66438,999,3783,.36024563E-3,.9664E-4,0
STARLINK-35327,2025-259T,2026-07-08T15:21:55.977408,15.27562871,.00018632,42.9947,310.8816,290.8373,69.2279,0,U,66439,999,3799,.58600346E-3,.1589E-3,0
STARLINK-35405,2025-259U,2026-07-08T16:04:30.947232,15.27593936,.000166,43.0021,311.1114,276.6683,83.3980,0,U,66440,999,3799,.40788318E-3,.10983E-3,0
STARLINK-35426,2025-259V,2026-07-08T19:01:43.199904,15.27603937,.00013031,43.0019,310.3133,253.3136,106.7572,0,U,66441,999,3801,.48491049E-3,.13115E-3,0
STARLINK-34724,2025-259W,2026-07-08T15:18:28.039392,15.27590582,.00013152,43.0010,311.7328,269.7485,90.3216,0,U,66442,999,3798,.37951392E-3,.10199E-3,0
STARLINK-35219,2025-259X,2026-07-08T19:55:23.030688,15.27601190,.00016869,43.0013,310.5948,276.1225,83.9434,0,U,66443,999,3790,.56416407E-3,.15305E-3,0
STARLINK-35360,2025-259Y,2026-07-08T15:27:30.367872,15.27576927,.00019942,42.9985,310.9088,270.8176,89.2447,0,U,66444,999,3799,.11783876E-2,.32304E-3,0
STARLINK-34698,2025-259Z,2026-07-08T15:07:21.594720,15.27608287,.00020589,43.0004,311.6749,278.7280,81.3338,0,U,66445,999,3787,.63668462E-3,.17315E-3,0
STARLINK-34986,2025-259AA,2026-07-08T10:15:39.553632,15.27565916,.00022379,43.0011,312.7367,274.8195,85.2401,0,U,66446,999,3795,.53701262E-3,.14538E-3,0
STARLINK-34851,2025-259AB,2026-07-08T15:16:37.164864,15.27579033,.0000607,42.9991,311.7228,201.6920,158.3906,0,U,66447,999,3787,.28401846E-3,.7561E-4,0
