STARLINK-35683          
1 66405U 25257AB  26189.73354491  .00020888  00000+0  62749-3 0  9990
2 66405  53.1591  12.8140 0000647  69.6917 290.4155 15.34406099 38220
STARLINK-34840          
1 66406U 25257AC  26189.76922410  .00020524  00000+0  61686-3 0  9992
2 66406  53.1604  12.3177 0000733  90.0735 270.0352 15.34401816 38240
STARLINK-35686          
1 66407U 25257AD  26189.89738906  .00050411  00000+0  14910-2 0  9997
2 66407  53.1614  11.7010 0001138  82.7794 277.3338 15.34444062 38327
STARLINK-35679          
1 66408U 25257AE  26189.77132812  .00027283  00000+0  81541-3 0  9995
2 66408  53.1607  12.3328 0000836  96.5681 263.5416 15.34410097 38304
STARLINK-35617          
1 66422U 25259A   26189.35829454  .00015730  00000+0  57957-3 0  9990
2 66422  42.9993 313.0870 0001379 147.5537 212.5400 15.27600589 37942
STARLINK-35618          
1 66423U 25259B   26189.68009136  .00018724  00000+0  68784-3 0  9990
2 66423  43.0026 311.2033 0001245 273.4223  86.6486 15.27597538 37994
STARLINK-35588          
1 66424U 25259C   26189.67750082  .00031579  00000+0  11505-2 0  9994
2 66424  43.0000 311.1802 0001092 220.5045 139.5725 15.27627263 37998
STARLINK-35555          
1 66425U 25259D   26189.67366040  .00015773  00000+0  58143-3 0  9990
2 66425  43.0026 311.1512 0001507 248.3507 111.7184 15.27583517 37991
STARLINK-35589          
1 66426U 25259E   26189.67108443  .00014355  00000+0  52989-3 0  9999
2 66426  42.9990 311.1235 0001339 195.2089 164.8723 15.27596034 37996
STARLINK-35611          
1 66427U 25259F   26189.66722689  .00016280  00000+0  59945-3 0  9991
2 66427  42.9979 311.0926 0001744 174.5890 185.4981 15.27600714 37996
STARLINK-35610          
1 66428U 25259G   26189.40183539  .00010399  00000+0  38678-3 0  9994
2 66428  43.0020 312.5447 0001180 244.2386 115.8344 15.27589770 37953
STARLINK-35533          
1 66429U 25259H   26189.65951786  .00019108  00000+0  70126-3 0  9990
2 66429  42.9984 311.0330 0001884 177.6570 182.4291 15.27618647 37992
STARLINK-35470          
1 66430U 25259J   26189.65565753  .00019619  00000+0  71961-3 0  9992
2 66430  42.9983 311.0033 0001641 216.9597 143.1142 15.27623609 37993
STARLINK-35439          
1 66431U 25259K   26189.78388003  .00015895  00000+0  58585-3 0  9997
2 66431  43.0013 310.2505 0001434 283.9912  76.0781 15.27581082 38015
STARLINK-35446          
1 66432U 25259L   26189.78258466  .00016411  00000+0  60414-3 0  9996
2 66432  43.0061 310.2454 0002068 283.9967  76.0655 15.27602546 38015
STARLINK-35457          
1 66433U 25259M   26189.64924505  .00023929  00000+0  87587-3 0  9998
2 66433  43.0004 310.9576 0001437 284.1068  75.9623 15.27594778 37995
STARLINK-35389          
1 66434U 25259N   26189.64795857  .00024608  00000+0  90062-3 0  9992
2 66434  43.0002 310.9465 0001678 278.4443  81.6218 15.27585552 37995
STARLINK-35502          
1 66435U 25259P   26189.64153185  .00028579  00000+0  10441-2 0  9998
2 66435  42.9968 310.8931 0002903 288.5263  71.5273 15.27575502 37999
STARLINK-35501          
1 66436U 25259Q   26189.64667256  .00037700  00000+0  13723-2 0  9990
2 66436  43.0007 310.9346 0000787 221.5465 138.5327 15.27586324 37994
STARLINK-35474          
1 66437U 25259R   26189.41980302  .00016739  00000+0  61648-3 0  9995
2 66437  42.9982 312.6779 0001893 263.7061  96.3575 15.27576152 37953
STARLINK-34681          
1 66438U 25259S   26189.34801277  .00009664  00000+0  36025-3 0  9991
2 66438  43.0047 313.0045 0002820 296.4961  63.5601 15.27579395 37837
STARLINK-35327          
1 66439U 25259T   26189.64023122  .00015890  00000+0  58600-3 0  9991
2 66439  42.9947 310.8816 0001863 290.8373  69.2279 15.27562871 37999
STARLINK-35405          
1 66440U 25259U   26189.66980263  .00010983  00000+0  40788-3 0  9999
2 66440  43.0021 311.1114 0001660 276.6683  83.3980 15.27593936 37994
STARLINK-35426          
1 66441U 25259V   26189.79286111  .00013115  00000+0  48491-3 0  9994
2 66441  43.0019 310.3133 0001303 253.3136 106.7572 15.27603937 38017
STARLINK-34724          
1 66442U 25259W   26189.63782453  .00010199  00000+0  37951-3 0  9996
2 66442  43.0010 311.7328 0001315 269.7485  90.3216 15.27590582 37980
STARLINK-35219          
1 66443U 25259X   26189.83012767  .00015305  00000+0  56416-3 0  9994
2 66443  43.0013 310.5948 0001686 276.1225  83.9434 15.27601190 37904
STARLINK-35360          
1 66444U 25259Y   26189.64410148  .00032304  00000+0  11784-2 0  9995
2 66444  42.9985 310.9088 0001994 270.8176  89.2447 15.27576927 37999
STARLINK-34698          
1 66445U 25259Z   26189.63011105  .00017315  00000+0  63668-3 0  9999
2 66445  43.0004 311.6749 0002058 278.7280  81.3338 15.27608287 37875
STARLINK-34986          
1 66446U 25259AA  26189.42754113  .00014538  00000+0  53701-3 0  9991
2 66446  43.0011 312.7367 0002237 274.8195  85.2401 15.27565916 37957
STARLINK-34851          
1 66447U 25259AB  26189.63654126  .00007561  00000+0  28402-3 0  9996
2 66447  42.9991 311.7228 0000607 201.6920 158.3906 15.27579033 37879
